SL-14 R/B               
1 18749U 88001B   25328.65788989  .00000620  00000+0  69122-4 0  9997
2 18749  82.5114 294.1563 0016911 221.9969 137.9951 14.85394911 26433
COSMOS 1933             
1 18958U 88020A   25328.81132976  .00005322  00000+0  26863-3 0  9995
2 18958  82.5140 354.5915 0004217 181.7593 178.3626 15.16905118 34325
SL-3 R/B                
1 19046U 88032B   25328.93889490  .00006454  00000+0  31390-3 0  9998
2 19046  97.5070 307.7875 0025028 237.0240 122.8588 15.18481212 36200
SL-16 R/B               
1 19120U 88039B   25328.99009430  .00000109  00000+0  74304-4 0  9996
2 19120  71.0144 289.9279 0020422 145.8408 214.4036 14.19592500943527
COSMOS 1953             
1 19210U 88050A   25328.81210001  .00006541  00000+0  24777-3 0  9992
2 19210  82.5091 263.5647 0013411 126.0190 234.2293 15.26631820 21778
SL-8 R/B                
1 19257U 88053B   25328.94975856  .00000269  00000+0  95718-4 0  9991
2 19257  74.0468 305.5079 0019477 155.5468 266.3034 14.38843449961532
COSMOS 1975             
1 19573U 88093A   25328.75154556  .00010522  00000+0  40628-3 0  9993
2 19573  82.5212 222.8287 0011315 170.2872 189.8587 15.26079552  3399
SL-14 R/B               
1 19574U 88093B   25329.00331361  .00000601  00000+0  66524-4 0  9995
2 19574  82.5293 140.3122 0021533  28.1639  89.5055 14.85521427985499
SL-16 R/B               
1 19650U 88102B   25328.87013465  .00000278  00000+0  16436-3 0  9993
2 19650  71.0009  12.0434 0014024 179.9159 180.1969 14.16135167912052
INTERCOSMOS 24          
1 20261U 89080A   25328.86764890  .00000999  00000+0  29037-3 0  9994
2 20261  82.6052 172.5737 1188509 175.9705 185.2109 12.59394719653600
SL-14 R/B               
1 20262U 89080C   25328.74255180  .00000498  00000+0  14154-3 0  9997
2 20262  82.5941 240.5700 1231024  64.7096 307.6342 12.50392129647035
DELTA 1 R/B             
1 20323U 89089B   25328.84282219  .00000455  00000+0  12101-3 0  9991
2 20323  97.0766 187.9155 0070758  93.7868 267.1425 14.50550956880532
