CCSDS_OMM_VERS = 2.0
CREATION_DATE  = 
ORIGINATOR     = 

OBJECT_NAME    = SL-14 R/B
OBJECT_ID      = 1988-001B
CENTER_NAME    = EARTH
REF_FRAME      = TEME
TIME_SYSTEM    = UTC
MEAN_ELEMENT_THEORY = SGP/SGP4

EPOCH          = 2025-11-24T15:47:21.686496
MEAN_MOTION    = 14.85394911
ECCENTRICITY   = .00169116
INCLINATION    = 82.5114
RA_OF_ASC_NODE = 294.1563
ARG_OF_PERICENTER = 221.9969
MEAN_ANOMALY   = 137.9951

EPHEMERIS_TYPE = 0
CLASSIFICATION_TYPE = U
NORAD_CAT_ID   = 18749
ELEMENT_SET_NO = 999
REV_AT_EPOCH   = 2643
BSTAR          = .6912165E-4
MEAN_MOTION_DOT = .62E-5
MEAN_MOTION_DDOT = 0

CCSDS_OMM_VERS = 2.0
CREATION_DATE  = 
ORIGINATOR     = 

OBJECT_NAME    = COSMOS 1933
OBJECT_ID      = 1988-020A
CENTER_NAME    = EARTH
REF_FRAME      = TEME
TIME_SYSTEM    = UTC
MEAN_ELEMENT_THEORY = SGP/SGP4

EPOCH          = 2025-11-24T19:28:18.891264
MEAN_MOTION    = 15.16905118
ECCENTRICITY   = .00042178
INCLINATION    = 82.5140
RA_OF_ASC_NODE = 354.5915
ARG_OF_PERICENTER = 181.7593
MEAN_ANOMALY   = 178.3626

EPHEMERIS_TYPE = 0
CLASSIFICATION_TYPE = U
NORAD_CAT_ID   = 18958
ELEMENT_SET_NO = 999
REV_AT_EPOCH   = 3432
BSTAR          = .26862738E-3
MEAN_MOTION_DOT = .5322E-4
MEAN_MOTION_DDOT = 0

CCSDS_OMM_VERS = 2.0
CREATION_DATE  = 
ORIGINATOR     = 

OBJECT_NAME    = SL-3 R/B
OBJECT_ID      = 1988-032B
CENTER_NAME    = EARTH
REF_FRAME      = TEME
TIME_SYSTEM    = UTC
MEAN_ELEMENT_THEORY = SGP/SGP4

EPOCH          = 2025-11-24T22:32:00.519360
MEAN_MOTION    = 15.18481212
ECCENTRICITY   = .00250281
INCLINATION    = 97.5070
RA_OF_ASC_NODE = 307.7875
ARG_OF_PERICENTER = 237.0240
MEAN_ANOMALY   = 122.8588

EPHEMERIS_TYPE = 0
CLASSIFICATION_TYPE = U
NORAD_CAT_ID   = 19046
ELEMENT_SET_NO = 999
REV_AT_EPOCH   = 3620
BSTAR          = .31389524E-3
MEAN_MOTION_DOT = .6454E-4
MEAN_MOTION_DDOT = 0

CCSDS_OMM_VERS = 2.0
CREATION_DATE  = 
ORIGINATOR     = 

OBJECT_NAME    = SL-16 R/B
OBJECT_ID      = 1988-039B
CENTER_NAME    = EARTH
REF_FRAME      = TEME
TIME_SYSTEM    = UTC
MEAN_ELEMENT_THEORY = SGP/SGP4

EPOCH          = 2025-11-24T23:45:44.147520
MEAN_MOTION    = 14.19592500
ECCENTRICITY   = .00204223
INCLINATION    = 71.0144
RA_OF_ASC_NODE = 289.9279
ARG_OF_PERICENTER = 145.8408
MEAN_ANOMALY   = 214.4036

EPHEMERIS_TYPE = 0
CLASSIFICATION_TYPE = U
NORAD_CAT_ID   = 19120
ELEMENT_SET_NO = 999
REV_AT_EPOCH   = 94352
BSTAR          = .74303995E-4
MEAN_MOTION_DOT = .109E-5
MEAN_MOTION_DDOT = 0

CCSDS_OMM_VERS = 2.0
CREATION_DATE  = 
ORIGINATOR     = 

OBJECT_NAME    = COSMOS 1953
OBJECT_ID      = 1988-050A
CENTER_NAME    = EARTH
REF_FRAME      = TEME
TIME_SYSTEM    = UTC
MEAN_ELEMENT_THEORY = SGP/SGP4

EPOCH          = 2025-11-24T19:29:25.440864
MEAN_MOTION    = 15.26631820
ECCENTRICITY   = .00134117
INCLINATION    = 82.5091
RA_OF_ASC_NODE = 263.5647
ARG_OF_PERICENTER = 126.0190
MEAN_ANOMALY   = 234.2293

EPHEMERIS_TYPE = 0
CLASSIFICATION_TYPE = U
NORAD_CAT_ID   = 19210
ELEMENT_SET_NO = 999
REV_AT_EPOCH   = 2177
BSTAR          = .24777477E-3
MEAN_MOTION_DOT = .6541E-4
MEAN_MOTION_DDOT = 0

CCSDS_OMM_VERS = 2.0
CREATION_DATE  = 
ORIGINATOR     = 

OBJECT_NAME    = SL-8 R/B
OBJECT_ID      = 1988-053B
CENTER_NAME    = EARTH
REF_FRAME      = TEME
TIME_SYSTEM    = UTC
MEAN_ELEMENT_THEORY = SGP/SGP4

EPOCH          = 2025-11-24T22:47:39.139584
MEAN_MOTION    = 14.38843449
ECCENTRICITY   = .00194776
INCLINATION    = 74.0468
RA_OF_ASC_NODE = 305.5079
ARG_OF_PERICENTER = 155.5468
MEAN_ANOMALY   = 266.3034

EPHEMERIS_TYPE = 0
CLASSIFICATION_TYPE = U
NORAD_CAT_ID   = 19257
ELEMENT_SET_NO = 999
REV_AT_EPOCH   = 96153
BSTAR          = .95717977E-4
MEAN_MOTION_DOT = .269E-5
MEAN_MOTION_DDOT = 0

CCSDS_OMM_VERS = 2.0
CREATION_DATE  = 
ORIGINATOR     = 

OBJECT_NAME    = COSMOS 1975
OBJECT_ID      = 1988-093A
CENTER_NAME    = EARTH
REF_FRAME      = TEME
TIME_SYSTEM    = UTC
MEAN_ELEMENT_THEORY = SGP/SGP4

EPOCH          = 2025-11-24T18:02:13.536384
MEAN_MOTION    = 15.26079552
ECCENTRICITY   = .00113152
INCLINATION    = 82.5212
RA_OF_ASC_NODE = 222.8287
ARG_OF_PERICENTER = 170.2872
MEAN_ANOMALY   = 189.8587

EPHEMERIS_TYPE = 0
CLASSIFICATION_TYPE = U
NORAD_CAT_ID   = 19573
ELEMENT_SET_NO = 999
REV_AT_EPOCH   = 339
BSTAR          = .40628416E-3
MEAN_MOTION_DOT = .10522E-3
MEAN_MOTION_DDOT = 0

CCSDS_OMM_VERS = 2.0
CREATION_DATE  = 
ORIGINATOR     = 

OBJECT_NAME    = SL-14 R/B
OBJECT_ID      = 1988-093B
CENTER_NAME    = EARTH
REF_FRAME      = TEME
TIME_SYSTEM    = UTC
MEAN_ELEMENT_THEORY = SGP/SGP4

EPOCH          = 2025-11-25T00:04:46.295904
MEAN_MOTION    = 14.85521427
ECCENTRICITY   = .00215333
INCLINATION    = 82.5293
RA_OF_ASC_NODE = 140.3122
ARG_OF_PERICENTER = 28.1639
MEAN_ANOMALY   = 89.5055

EPHEMERIS_TYPE = 0
CLASSIFICATION_TYPE = U
NORAD_CAT_ID   = 19574
ELEMENT_SET_NO = 999
REV_AT_EPOCH   = 98549
BSTAR          = .66524257E-4
MEAN_MOTION_DOT = .601E-5
MEAN_MOTION_DDOT = 0

CCSDS_OMM_VERS = 2.0
CREATION_DATE  = 
ORIGINATOR     = 

OBJECT_NAME    = SL-16 R/B
OBJECT_ID      = 1988-102B
CENTER_NAME    = EARTH
REF_FRAME      = TEME
TIME_SYSTEM    = UTC
MEAN_ELEMENT_THEORY = SGP/SGP4

EPOCH          = 2025-11-24T20:52:59.633760
MEAN_MOTION    = 14.16135167
ECCENTRICITY   = .00140245
INCLINATION    = 71.0009
RA_OF_ASC_NODE = 12.0434
ARG_OF_PERICENTER = 179.9159
MEAN_ANOMALY   = 180.1969

EPHEMERIS_TYPE = 0
CLASSIFICATION_TYPE = U
NORAD_CAT_ID   = 19650
ELEMENT_SET_NO = 999
REV_AT_EPOCH   = 91205
BSTAR          = .16436326E-3
MEAN_MOTION_DOT = .278E-5
MEAN_MOTION_DDOT = 0

CCSDS_OMM_VERS = 2.0
CREATION_DATE  = 
ORIGINATOR     = 

OBJECT_NAME    = INTERCOSMOS 24
OBJECT_ID      = 1989-080A
CENTER_NAME    = EARTH
REF_FRAME      = TEME
TIME_SYSTEM    = UTC
MEAN_ELEMENT_THEORY = SGP/SGP4

EPOCH          = 2025-11-24T20:49:24.864960
MEAN_MOTION    = 12.59394719
ECCENTRICITY   = .1188509
INCLINATION    = 82.6052
RA_OF_ASC_NODE = 172.5737
ARG_OF_PERICENTER = 175.9705
MEAN_ANOMALY   = 185.2109

EPHEMERIS_TYPE = 0
CLASSIFICATION_TYPE = U
NORAD_CAT_ID   = 20261
ELEMENT_SET_NO = 999
REV_AT_EPOCH   = 65360
BSTAR          = .29036716E-3
MEAN_MOTION_DOT = .999E-5
MEAN_MOTION_DDOT = 0

CCSDS_OMM_VERS = 2.0
CREATION_DATE  = 
ORIGINATOR     = 

OBJECT_NAME    = SL-14 R/B
OBJECT_ID      = 1989-080C
CENTER_NAME    = EARTH
REF_FRAME      = TEME
TIME_SYSTEM    = UTC
MEAN_ELEMENT_THEORY = SGP/SGP4

EPOCH          = 2025-11-24T17:49:16.475520
MEAN_MOTION    = 12.50392129
ECCENTRICITY   = .12310243
INCLINATION    = 82.5941
RA_OF_ASC_NODE = 240.5700
ARG_OF_PERICENTER = 64.7096
MEAN_ANOMALY   = 307.6342

EPHEMERIS_TYPE = 0
CLASSIFICATION_TYPE = U
NORAD_CAT_ID   = 20262
ELEMENT_SET_NO = 999
REV_AT_EPOCH   = 64703
BSTAR          = .1415401E-3
MEAN_MOTION_DOT = .498E-5
MEAN_MOTION_DDOT = 0

CCSDS_OMM_VERS = 2.0
CREATION_DATE  = 
ORIGINATOR     = 

OBJECT_NAME    = DELTA 1 R/B
OBJECT_ID      = 1989-089B
CENTER_NAME    = EARTH
REF_FRAME      = TEME
TIME_SYSTEM    = UTC
MEAN_ELEMENT_THEORY = SGP/SGP4

EPOCH          = 2025-11-24T20:13:39.837216
MEAN_MOTION    = 14.50550956
ECCENTRICITY   = .00707588
INCLINATION    = 97.0766
RA_OF_ASC_NODE = 187.9155
ARG_OF_PERICENTER = 93.7868
MEAN_ANOMALY   = 267.1425

EPHEMERIS_TYPE = 0
CLASSIFICATION_TYPE = U
NORAD_CAT_ID   = 20323
ELEMENT_SET_NO = 999
REV_AT_EPOCH   = 88053
BSTAR          = .12101405E-3
MEAN_MOTION_DOT = .455E-5
MEAN_MOTION_DDOT = 0

